{
  "type": "FeatureCollection",
  "features": [
    {
      "type": "Feature",
      "properties": {
        "norad_id": 37836,
        "name": "EUTELSAT 16A",
        "group": "eutelsat",
        "lat": -0.025968274650077342,
        "lon": -33.32846496536702,
        "alt_km": 35772.47418472948,
        "timestamp": "2025-12-21T14:40:47.582054+00:00",
        "meta_object_name": "EUTELSAT 16A",
        "meta_object_id": "2011-057A",
        "meta_epoch": "2025-12-21T04:42:50.406336",
        "meta_mean_motion": 1.00269572,
        "meta_eccentricity": 0.00058586,
        "meta_inclination": 0.0592,
        "meta_ra_of_asc_node": 339.4786,
        "meta_arg_of_pericenter": 292.0195,
        "meta_mean_anomaly": 265.2322,
        "meta_ephemeris_type": 0,
        "meta_classification_type": "U",
        "meta_norad_cat_id": 37836,
        "meta_element_set_no": 999,
        "meta_rev_at_epoch": 554,
        "meta_bstar": 0,
        "meta_mean_motion_dot": 1.27e-06,
        "meta_mean_motion_ddot": 0,
        "tle_line1": "1 37836U 11057A   25355.19641674  .00000127  00000+0  00000+0 0  9997",
        "tle_line2": "2 37836   0.0592 339.4786 0005858 292.0195 265.2322  1.00269572  5547"
      },
      "geometry": {
        "type": "Point",
        "coordinates": [
          -33.32846496536702,
          -0.025968274650077342
        ]
      }
    },
    {
      "type": "Feature",
      "properties": {
        "norad_id": 38992,
        "name": "EUTELSAT 21B",
        "group": "eutelsat",
        "lat": -0.021936225741984727,
        "lon": -27.75674791179422,
        "alt_km": 35779.380857225486,
        "timestamp": "2025-12-21T14:40:47.582065+00:00",
        "meta_object_name": "EUTELSAT 21B",
        "meta_object_id": "2012-062B",
        "meta_epoch": "2025-12-21T04:44:27.750624",
        "meta_mean_motion": 1.00269375,
        "meta_eccentricity": 0.00032595,
        "meta_inclination": 0.0683,
        "meta_ra_of_asc_node": 341.4531,
        "meta_arg_of_pericenter": 292.8644,
        "meta_mean_anomaly": 268.4151,
        "meta_ephemeris_type": 0,
        "meta_classification_type": "U",
        "meta_norad_cat_id": 38992,
        "meta_element_set_no": 999,
        "meta_rev_at_epoch": 4804,
        "meta_bstar": 0,
        "meta_mean_motion_dot": 1.53e-06,
        "meta_mean_motion_ddot": 0,
        "tle_line1": "1 38992U 12062B   25355.19754341  .00000153  00000+0  00000+0 0  9993",
        "tle_line2": "2 38992   0.0683 341.4531 0003259 292.8644 268.4151  1.00269375 48041"
      },
      "geometry": {
        "type": "Point",
        "coordinates": [
          -27.75674791179422,
          -0.021936225741984727
        ]
      }
    },
    {
      "type": "Feature",
      "properties": {
        "norad_id": 39020,
        "name": "EUTELSAT 70B",
        "group": "eutelsat",
        "lat": 0.024132948346297273,
        "lon": 21.147194362510973,
        "alt_km": 35796.90103145166,
        "timestamp": "2025-12-21T14:40:47.582077+00:00",
        "meta_object_name": "EUTELSAT 70B",
        "meta_object_id": "2012-069A",
        "meta_epoch": "2025-12-21T04:58:18.923808",
        "meta_mean_motion": 1.00271519,
        "meta_eccentricity": 0.00042631,
        "meta_inclination": 0.0614,
        "meta_ra_of_asc_node": 6.4961,
        "meta_arg_of_pericenter": 247.9023,
        "meta_mean_anomaly": 340.6999,
        "meta_ephemeris_type": 0,
        "meta_classification_type": "U",
        "meta_norad_cat_id": 39020,
        "meta_element_set_no": 999,
        "meta_rev_at_epoch": 4772,
        "meta_bstar": 0,
        "meta_mean_motion_dot": -2e-07,
        "meta_mean_motion_ddot": 0,
        "tle_line1": "1 39020U 12069A   25355.20716347 -.00000020  00000+0  00000+0 0  9993",
        "tle_line2": "2 39020   0.0614   6.4961 0004263 247.9023 340.6999  1.00271519 47721"
      },
      "geometry": {
        "type": "Point",
        "coordinates": [
          21.147194362510973,
          0.024132948346297273
        ]
      }
    },
    {
      "type": "Feature",
      "properties": {
        "norad_id": 39122,
        "name": "EUTELSAT 117 WEST A",
        "group": "eutelsat",
        "lat": -0.0314823569227058,
        "lon": -166.19626019010158,
        "alt_km": 35784.5363419592,
        "timestamp": "2025-12-21T14:40:47.582089+00:00",
        "meta_object_name": "EUTELSAT 117 WEST A",
        "meta_object_id": "2013-012A",
        "meta_epoch": "2025-12-21T04:31:22.898208",
        "meta_mean_motion": 1.00270307,
        "meta_eccentricity": 0.00025965,
        "meta_inclination": 0.0286,
        "meta_ra_of_asc_node": 304.2421,
        "meta_arg_of_pericenter": 329.3971,
        "meta_mean_anomaly": 127.4345,
        "meta_ephemeris_type": 0,
        "meta_classification_type": "U",
        "meta_norad_cat_id": 39122,
        "meta_element_set_no": 999,
        "meta_rev_at_epoch": 4664,
        "meta_bstar": 0,
        "meta_mean_motion_dot": 1e-07,
        "meta_mean_motion_ddot": 0,
        "tle_line1": "1 39122U 13012A   25355.18845947  .00000010  00000+0  00000+0 0  9999",
        "tle_line2": "2 39122   0.0286 304.2421 0002596 329.3971 127.4345  1.00270307 46643"
      },
      "geometry": {
        "type": "Point",
        "coordinates": [
          -166.19626019010158,
          -0.0314823569227058
        ]
      }
    },
    {
      "type": "Feature",
      "properties": {
        "norad_id": 39163,
        "name": "EUTELSAT 7B",
        "group": "eutelsat",
        "lat": -0.0629933420054168,
        "lon": -42.390622808081574,
        "alt_km": 35767.877397186436,
        "timestamp": "2025-12-21T14:40:47.582101+00:00",
        "meta_object_name": "EUTELSAT 7B",
        "meta_object_id": "2013-022A",
        "meta_epoch": "2025-12-21T03:32:38.808096",
        "meta_mean_motion": 1.0027093,
        "meta_eccentricity": 0.00043872,
        "meta_inclination": 0.0651,
        "meta_ra_of_asc_node": 0.6593,
        "meta_arg_of_pericenter": 321.5749,
        "meta_mean_anomaly": 187.8946,
        "meta_ephemeris_type": 0,
        "meta_classification_type": "U",
        "meta_norad_cat_id": 39163,
        "meta_element_set_no": 999,
        "meta_rev_at_epoch": 4616,
        "meta_bstar": 0,
        "meta_mean_motion_dot": 7.1e-07,
        "meta_mean_motion_ddot": 0,
        "tle_line1": "1 39163U 13022A   25355.14767139  .00000071  00000+0  00000+0 0  9994",
        "tle_line2": "2 39163   0.0651   0.6593 0004387 321.5749 187.8946  1.00270930 46164"
      },
      "geometry": {
        "type": "Point",
        "coordinates": [
          -42.390622808081574,
          -0.0629933420054168
        ]
      }
    },
    {
      "type": "Feature",
      "properties": {
        "norad_id": 39612,
        "name": "EXPRESS-AT1",
        "group": "eutelsat",
        "lat": 0.017975439001370414,
        "lon": 6.614767991235288,
        "alt_km": 35788.427344193544,
        "timestamp": "2025-12-21T14:40:47.582114+00:00",
        "meta_object_name": "EXPRESS-AT1",
        "meta_object_id": "2014-010A",
        "meta_epoch": "2025-12-21T03:11:36.644064",
        "meta_mean_motion": 1.00273021,
        "meta_eccentricity": 8.601e-05,
        "meta_inclination": 0.0169,
        "meta_ra_of_asc_node": 305.1797,
        "meta_arg_of_pericenter": 200.8222,
        "meta_mean_anomaly": 47.858,
        "meta_ephemeris_type": 0,
        "meta_classification_type": "U",
        "meta_norad_cat_id": 39612,
        "meta_element_set_no": 999,
        "meta_rev_at_epoch": 4303,
        "meta_bstar": 0,
        "meta_mean_motion_dot": 1.01e-06,
        "meta_mean_motion_ddot": 0,
        "tle_line1": "1 39612U 14010A   25355.13306301  .00000101  00000+0  00000+0 0  9994",
        "tle_line2": "2 39612   0.0169 305.1797 0000860 200.8222  47.8580  1.00273021 43039"
      },
      "geometry": {
        "type": "Point",
        "coordinates": [
          6.614767991235288,
          0.017975439001370414
        ]
      }
    },
    {
      "type": "Feature",
      "properties": {
        "norad_id": 39613,
        "name": "EXPRESS-AT2",
        "group": "eutelsat",
        "lat": 0.03839898655892643,
        "lon": 90.47668137664282,
        "alt_km": 35790.45823530933,
        "timestamp": "2025-12-21T14:40:47.582125+00:00",
        "meta_object_name": "EXPRESS-AT2",
        "meta_object_id": "2014-010B",
        "meta_epoch": "2025-12-21T03:35:19.372992",
        "meta_mean_motion": 1.00270951,
        "meta_eccentricity": 0.00010602,
        "meta_inclination": 0.019,
        "meta_ra_of_asc_node": 327.4725,
        "meta_arg_of_pericenter": 327.2965,
        "meta_mean_anomaly": 348.8895,
        "meta_ephemeris_type": 0,
        "meta_classification_type": "U",
        "meta_norad_cat_id": 39613,
        "meta_element_set_no": 999,
        "meta_rev_at_epoch": 4271,
        "meta_bstar": 0,
        "meta_mean_motion_dot": -2.58e-06,
        "meta_mean_motion_ddot": 0,
        "tle_line1": "1 39613U 14010B   25355.14952978 -.00000258  00000+0  00000+0 0  9997",
        "tle_line2": "2 39613   0.0190 327.4725 0001060 327.2965 348.8895  1.00270951 42719"
      },
      "geometry": {
        "type": "Point",
        "coordinates": [
          90.47668137664282,
          0.03839898655892643
        ]
      }
    }
  ]
}